[{"OBJECT_NAME":"STARLINK-32455","OBJECT_ID":"2024-191M","EPOCH":"2026-03-09T22:55:41.548800","MEAN_MOTION":15.27577029,"ECCENTRICITY":0.00012966,"INCLINATION":43.0034,"RA_OF_ASC_NODE":156.7658,"ARG_OF_PERICENTER":266.1297,"MEAN_ANOMALY":93.9406,"EPHEMERIS_TYPE":0,"CLASSIFICATION_TYPE":"U","NORAD_CAT_ID":61632,"ELEMENT_SET_NO":999,"REV_AT_EPOCH":7753,"BSTAR":-2.23598e-7,"MEAN_MOTION_DOT":-2.68e-6,"MEAN_MOTION_DDOT":0},{"OBJECT_NAME":"ARCSTONE","OBJECT_ID":"2025-135N","EPOCH":"2026-03-09T21:21:29.017152","MEAN_MOTION":15.28638458,"ECCENTRICITY":0.00041199,"INCLINATION":97.4495,"RA_OF_ASC_NODE":185.9194,"ARG_OF_PERICENTER":166.7863,"MEAN_ANOMALY":193.3485,"EPHEMERIS_TYPE":0,"CLASSIFICATION_TYPE":"U","NORAD_CAT_ID":64540,"ELEMENT_SET_NO":999,"REV_AT_EPOCH":3984,"BSTAR":0.00094899777,"MEAN_MOTION_DOT":0.00026427,"MEAN_MOTION_DDOT":0}]
